{
  "type": "FeatureCollection",
  "features": [
    {
      "type": "Feature",
      "properties": {
        "norad_id": 33860,
        "name": "IRIDIUM 33 DEB",
        "group": "iridium-33-debris",
        "lat": 50.199919168314935,
        "lon": 25.288830045627606,
        "alt_km": 665.840585713534,
        "timestamp": "2025-12-26T23:26:42.509044+00:00",
        "meta_object_name": "IRIDIUM 33 DEB",
        "meta_object_id": "1997-051AD",
        "meta_epoch": "2025-12-26T19:07:15.553920",
        "meta_mean_motion": 14.67538628,
        "meta_eccentricity": 0.0005824,
        "meta_inclination": 86.3826,
        "meta_ra_of_asc_node": 21.014,
        "meta_arg_of_pericenter": 301.0056,
        "meta_mean_anomaly": 238.0804,
        "meta_ephemeris_type": 0,
        "meta_classification_type": "U",
        "meta_norad_cat_id": 33860,
        "meta_element_set_no": 999,
        "meta_rev_at_epoch": 88928,
        "meta_bstar": 0.0012282,
        "meta_mean_motion_dot": 6.989e-05,
        "meta_mean_motion_ddot": 0,
        "tle_line1": "1 33860U 97051AD  25360.79670780  .00006989  00000+0  12282-2 0  9990",
        "tle_line2": "2 33860  86.3826  21.0140 0005824 301.0056 238.0804 14.67538628889287"
      },
      "geometry": {
        "type": "Point",
        "coordinates": [
          25.288830045627606,
          50.199919168314935
        ]
      }
    },
    {
      "type": "Feature",
      "properties": {
        "norad_id": 33862,
        "name": "IRIDIUM 33 DEB",
        "group": "iridium-33-debris",
        "lat": -15.043515770396212,
        "lon": -147.78242131953942,
        "alt_km": 703.1528473235367,
        "timestamp": "2025-12-26T23:26:42.509053+00:00",
        "meta_object_name": "IRIDIUM 33 DEB",
        "meta_object_id": "1997-051AF",
        "meta_epoch": "2025-12-26T14:56:06.808128",
        "meta_mean_motion": 14.69701742,
        "meta_eccentricity": 0.0051898,
        "meta_inclination": 86.4083,
        "meta_ra_of_asc_node": 31.4067,
        "meta_arg_of_pericenter": 22.4772,
        "meta_mean_anomaly": 97.5758,
        "meta_ephemeris_type": 0,
        "meta_classification_type": "U",
        "meta_norad_cat_id": 33862,
        "meta_element_set_no": 999,
        "meta_rev_at_epoch": 89027,
        "meta_bstar": 0.0015611,
        "meta_mean_motion_dot": 9.518e-05,
        "meta_mean_motion_ddot": 0,
        "tle_line1": "1 33862U 97051AF  25360.62230102  .00009518  00000+0  15611-2 0  9994",
        "tle_line2": "2 33862  86.4083  31.4067 0051898  22.4772  97.5758 14.69701742890277"
      },
      "geometry": {
        "type": "Point",
        "coordinates": [
          -147.78242131953942,
          -15.043515770396212
        ]
      }
    },
    {
      "type": "Feature",
      "properties": {
        "norad_id": 33866,
        "name": "IRIDIUM 33 DEB",
        "group": "iridium-33-debris",
        "lat": 25.50662594165357,
        "lon": -94.75665385114841,
        "alt_km": 741.0965077082947,
        "timestamp": "2025-12-26T23:26:42.509064+00:00",
        "meta_object_name": "IRIDIUM 33 DEB",
        "meta_object_id": "1997-051AK",
        "meta_epoch": "2025-12-26T16:41:52.800000",
        "meta_mean_motion": 14.25317881,
        "meta_eccentricity": 0.0115243,
        "meta_inclination": 86.2998,
        "meta_ra_of_asc_node": 87.1316,
        "meta_arg_of_pericenter": 117.1751,
        "meta_mean_anomaly": 34.7291,
        "meta_ephemeris_type": 0,
        "meta_classification_type": "U",
        "meta_norad_cat_id": 33866,
        "meta_element_set_no": 999,
        "meta_rev_at_epoch": 87009,
        "meta_bstar": 0.00062512,
        "meta_mean_motion_dot": 1.597e-05,
        "meta_mean_motion_ddot": 0,
        "tle_line1": "1 33866U 97051AK  25360.69575000  .00001597  00000+0  62512-3 0  9996",
        "tle_line2": "2 33866  86.2998  87.1316 0115243 117.1751  34.7291 14.25317881870095"
      },
      "geometry": {
        "type": "Point",
        "coordinates": [
          -94.75665385114841,
          25.50662594165357
        ]
      }
    },
    {
      "type": "Feature",
      "properties": {
        "norad_id": 33870,
        "name": "IRIDIUM 33 DEB",
        "group": "iridium-33-debris",
        "lat": -46.21297356841035,
        "lon": -124.0488528359415,
        "alt_km": 746.7322663697487,
        "timestamp": "2025-12-26T23:26:42.509074+00:00",
        "meta_object_name": "IRIDIUM 33 DEB",
        "meta_object_id": "1997-051AP",
        "meta_epoch": "2025-12-26T14:47:54.488832",
        "meta_mean_motion": 14.45919153,
        "meta_eccentricity": 0.0022756,
        "meta_inclination": 86.3733,
        "meta_ra_of_asc_node": 52.3117,
        "meta_arg_of_pericenter": 134.2343,
        "meta_mean_anomaly": 17.5876,
        "meta_ephemeris_type": 0,
        "meta_classification_type": "U",
        "meta_norad_cat_id": 33870,
        "meta_element_set_no": 999,
        "meta_rev_at_epoch": 88337,
        "meta_bstar": 0.00069882,
        "meta_mean_motion_dot": 2.511e-05,
        "meta_mean_motion_ddot": 0,
        "tle_line1": "1 33870U 97051AP  25360.61660288  .00002511  00000+0  69882-3 0  9990",
        "tle_line2": "2 33870  86.3733  52.3117 0022756 134.2343  17.5876 14.45919153883379"
      },
      "geometry": {
        "type": "Point",
        "coordinates": [
          -124.0488528359415,
          -46.21297356841035
        ]
      }
    },
    {
      "type": "Feature",
      "properties": {
        "norad_id": 33881,
        "name": "IRIDIUM 33 DEB",
        "group": "iridium-33-debris",
        "lat": -71.80729986131406,
        "lon": 89.4644249328759,
        "alt_km": 751.2056209093334,
        "timestamp": "2025-12-26T23:26:42.509083+00:00",
        "meta_object_name": "IRIDIUM 33 DEB",
        "meta_object_id": "1997-051BA",
        "meta_epoch": "2025-12-26T17:52:36.248736",
        "meta_mean_motion": 14.56831509,
        "meta_eccentricity": 0.0061023,
        "meta_inclination": 86.3854,
        "meta_ra_of_asc_node": 100.6549,
        "meta_arg_of_pericenter": 129.3399,
        "meta_mean_anomaly": 22.2432,
        "meta_ephemeris_type": 0,
        "meta_classification_type": "U",
        "meta_norad_cat_id": 33881,
        "meta_element_set_no": 999,
        "meta_rev_at_epoch": 87704,
        "meta_bstar": 0.0022087,
        "meta_mean_motion_dot": 0.00010173,
        "meta_mean_motion_ddot": 0,
        "tle_line1": "1 33881U 97051BA  25360.74486399  .00010173  00000+0  22087-2 0  9993",
        "tle_line2": "2 33881  86.3854 100.6549 0061023 129.3399  22.2432 14.56831509877045"
      },
      "geometry": {
        "type": "Point",
        "coordinates": [
          89.4644249328759,
          -71.80729986131406
        ]
      }
    },
    {
      "type": "Feature",
      "properties": {
        "norad_id": 33884,
        "name": "IRIDIUM 33 DEB",
        "group": "iridium-33-debris",
        "lat": -42.142692663715735,
        "lon": -173.31674891785363,
        "alt_km": 638.9762705896646,
        "timestamp": "2025-12-26T23:26:42.509092+00:00",
        "meta_object_name": "IRIDIUM 33 DEB",
        "meta_object_id": "1997-051BD",
        "meta_epoch": "2025-12-26T11:45:10.238112",
        "meta_mean_motion": 14.77706795,
        "meta_eccentricity": 0.0008805,
        "meta_inclination": 86.3712,
        "meta_ra_of_asc_node": 3.6109,
        "meta_arg_of_pericenter": 269.9643,
        "meta_mean_anomaly": 242.2854,
        "meta_ephemeris_type": 0,
        "meta_classification_type": "U",
        "meta_norad_cat_id": 33884,
        "meta_element_set_no": 999,
        "meta_rev_at_epoch": 89050,
        "meta_bstar": 0.0015056,
        "meta_mean_motion_dot": 0.00010823,
        "meta_mean_motion_ddot": 0,
        "tle_line1": "1 33884U 97051BD  25360.48970183  .00010823  00000+0  15056-2 0  9996",
        "tle_line2": "2 33884  86.3712   3.6109 0008805 269.9643 242.2854 14.77706795890506"
      },
      "geometry": {
        "type": "Point",
        "coordinates": [
          -173.31674891785363,
          -42.142692663715735
        ]
      }
    },
    {
      "type": "Feature",
      "properties": {
        "norad_id": 33886,
        "name": "IRIDIUM 33 DEB",
        "group": "iridium-33-debris",
        "lat": -3.8179252363633225,
        "lon": -118.52241179406168,
        "alt_km": 765.3813219595977,
        "timestamp": "2025-12-26T23:26:42.509102+00:00",
        "meta_object_name": "IRIDIUM 33 DEB",
        "meta_object_id": "1997-051BF",
        "meta_epoch": "2025-12-26T14:45:54.639072",
        "meta_mean_motion": 14.36067742,
        "meta_eccentricity": 0.0013658,
        "meta_inclination": 86.3819,
        "meta_ra_of_asc_node": 61.3879,
        "meta_arg_of_pericenter": 192.7494,
        "meta_mean_anomaly": 282.4081,
        "meta_ephemeris_type": 0,
        "meta_classification_type": "U",
        "meta_norad_cat_id": 33886,
        "meta_element_set_no": 999,
        "meta_rev_at_epoch": 88251,
        "meta_bstar": 0.00019455,
        "meta_mean_motion_dot": 5.86e-06,
        "meta_mean_motion_ddot": 0,
        "tle_line1": "1 33886U 97051BF  25360.61521573  .00000586  00000+0  19455-3 0  9991",
        "tle_line2": "2 33886  86.3819  61.3879 0013658 192.7494 282.4081 14.36067742882517"
      },
      "geometry": {
        "type": "Point",
        "coordinates": [
          -118.52241179406168,
          -3.8179252363633225
        ]
      }
    }
  ]
}